{
  "norad_id": 48575,
  "name": "STARLINK-2227",
  "history": [
    {
      "epoch": "2026-03-28T03:48:11.660256Z",
      "apogee_km": 476.0903783238691,
      "perigee_km": 474.3605896329127,
      "latitude_deg": 2.6742582376420108e-05,
      "longitude_deg": 119.8078064118539,
      "height_km": 476.634111070991,
      "semi_major_axis_km": 6853.362483978391,
      "eccentricity": 0.0001262,
      "inclination_deg": 53.1618,
      "raan_deg": 2.4393,
      "arg_perigee_deg": 126.1362,
      "mean_anomaly_deg": 233.9756,
      "mean_motion_rev_day": 15.30196512
    },
    {
      "epoch": "2026-03-29T00:10:52.561920Z",
      "apogee_km": 475.724006571525,
      "perigee_km": 474.59184225001263,
      "latitude_deg": 3.8475219751373775e-05,
      "longitude_deg": 169.35779534578748,
      "height_km": 476.17030515075453,
      "semi_major_axis_km": 6853.2949244107685,
      "eccentricity": 8.26e-05,
      "inclination_deg": 53.1624,
      "raan_deg": 358.4966,
      "arg_perigee_deg": 101.5591,
      "mean_anomaly_deg": 258.5503,
      "mean_motion_rev_day": 15.30219139
    },
    {
      "epoch": "2026-03-30T02:49:47.098272Z",
      "apogee_km": 475.98771471240434,
      "perigee_km": 474.474079878607,
      "latitude_deg": 5.4774225668438134e-05,
      "longitude_deg": 123.37985904888308,
      "height_km": 475.99766403051115,
      "semi_major_axis_km": 6853.367897295505,
      "eccentricity": 0.00011043,
      "inclination_deg": 53.1619,
      "raan_deg": 353.3403,
      "arg_perigee_deg": 79.9744,
      "mean_anomaly_deg": 280.1382,
      "mean_motion_rev_day": 15.30194699
    }
  ]
}